#dP2024 12  3  0  0  0.00000000      97 __u+U IGS20 FIT  IAC
## 2343 172800.00000000   900.00000000 60647 0.0000000000000
+  117   C06C07C08C09C11C12C13C14C16C19C20C21C22C23C24C25C26
+        C27C28C29C30C32C33C34C35C36C37C38C39C40C41C42C43C44
+        C45E02E03E04E05E06E07E08E09E10E11E12E13E14E15E18E19
+        E21E24E25E26E27E29E30E31E33E34E36G02G03G04G05G06G07
+        G08G09G10G11G12G13G14G15G16G17G18G19G20G21G22G23G24
+        G25G26G27G28G29G30G31G32J02J03J04R01R02R03R04R05R07
+        R08R09R11R12R14R15R16R17R18R19R20R21R22R24R26  0  0
++         7  7  7  7  7  6  7  6  7  5  6  6  5  5  5  5  5
++         5  5  6  6  5  6  5  5  6  5  6  6  6  5  6  6  5
++         6  4  4  4  4  4  4  4  4  4  4  4  4  4  4  5  4
++         4  4  4  4  4  4  4  4  4  4  4  3  3  3  4  3  3
++         3  3  3  3  3  3  3  3  4  3  3  3  4  3  3  3  3
++         3  4  4  3  3  3  3  3 10 10 10  7  7  6  6  6  6
++         6  7  6  6  6  6  6  6  6  8  7  7  6  6  7  0  0
%c M  cc GPS ccc cccc cccc cccc cccc ccccc ccccc ccccc ccccc
%c cc cc ccc ccc cccc cccc cccc cccc ccccc ccccc ccccc ccccc
%f  1.2500000  1.025000000  0.00000000000  0.000000000000000
%f  0.0000000  0.000000000  0.00000000000  0.000000000000000
%i    0    0    0    0      0      0      0      0         0
%i    0    0    0    0      0      0      0      0         0
/* INFORMATION & ANALYSIS CENTER (IAC)            FINAL DATA
/* S/V CLOCKS ARE ALIGNED TO GNSS TIME                      
/* G:C1WC2W R:C1PC2P E:C1XC5X C:C2IC6I J:C1CC2S             
/* PCV:IGS20_2317 OL/AL:FES2004  NONE     YN ORB:CoN CLK:CoN
*  2024 12 03  7 30  0.00000000
PC06 -16299.548295  26451.280423  28452.545504    504.359171
PC07  -8245.846667  41009.719826   6359.715392   -154.133146
PC08    521.751381  24671.040024 -34128.642135   -868.639394
PC09  -7866.971531  26000.514117  32579.838798   -723.150890
PC11  16240.697936 -21312.145418   7866.368256    271.459425
PC12  23170.819431 -11434.992923 -10496.150605   -240.481052
PC13   5948.870732  27946.029873 -30699.369354     83.001922
PC14   5267.929987 -22594.677569  15474.893661   -498.332720
PC16 -19565.561910  25822.661123  27098.219108     54.688539
PC19   1280.471531  26866.518369  -7456.370043   -970.626526
PC20  -9992.534496  16438.448861 -20220.867377   -897.503105
PC21  16380.170331   5249.813637  21987.172729   -911.124261
PC22  12544.586222  22649.678962  10426.060604    195.813452
PC23 -18553.270692 -15750.551756 -13669.332568   -904.687631
PC24  20023.360002  -7625.667124 -17887.838646    745.022801
PC25    680.589271 -16586.732390 -22450.337924    577.795472
PC26  27262.607101   4969.132115  -3145.330634   -385.876983
PC27 -21498.900715   3320.971279  17460.780724    404.578012
PC28 -11411.937546 -11356.815749  22803.288323    315.445623
PC29  -8015.620426  22611.806201 -14254.110541    370.344950
PC30 -21029.384128  18012.071441   3386.537401     43.211223
PC32 -16429.534380  -5237.768514 -21928.950530   -825.447269
PC33  -1361.094382 -26817.027637   7575.945940   -948.411617
PC34  20361.495433 -19026.718463  -1664.086213    577.428992
PC35  11306.961294  11577.593652 -22744.690974    191.824236
PC36   -640.606504  16650.315510  22395.883547    231.459780
PC37 -27164.614734  -5820.335290   2812.852978   -894.907942
PC38  -6464.472252  22746.299873 -34832.687428    194.849477
PC39 -23386.167646  26326.775584  23029.955607    -10.485249
PC40 -14122.677628  38982.099757   8568.021003   -106.112361
PC41 -12190.508915 -23217.691013  -9476.100096   -886.533960
PC42  11052.100196 -14597.392858  21089.251461   -529.467140
PC43   8862.284518 -22804.974101  13433.043437     94.101714
PC44  21401.505214  -3962.872308 -17492.244061    670.247873
PC45  18018.355852  15916.878699  14132.260658   -179.710446
PE02 -18537.420343 -23083.051117    630.181294    179.429556
PE03  -8624.237120 -18609.675372 -21349.322118   -157.439682
PE04  18268.223325  -2351.142125  23172.262569    -97.461489
PE05   5881.796054 -28153.796525  -7002.734449   4807.033669
PE06  19177.635799 -12908.766723  18474.282340    -54.310903
PE07 -17137.876408  21070.271534 -11777.862838   -156.135269
PE08 -17970.884508   1556.073574 -23477.194653   -377.803657
PE09  17104.120881 -21028.470658  11875.900925   -686.026916
PE10  28598.225162  -6606.062489   3803.162478   -673.931145
PE11  23294.151295 -12195.141008  13603.241832    462.303435
PE12  29131.576016   -714.507139  -5235.462898  -1323.147411
PE13 -23702.919828  11901.532038 -13125.747490    -27.487866
PE14  11367.622839 -20787.024847  -4061.663992    434.261549
PE15 -28985.367681    241.376629   6003.605716   -142.731109
PE18  -8433.291129  30975.604246  -3894.552795    841.453846
PE19   7159.827162  20074.278126  20540.477693   1027.119834
PE21   4485.644451  24187.875468  16453.310837   -631.890279
PE24  12792.991143 -11091.289449 -24298.646629  -1133.836162
PE25  -4090.777770 -24046.227468 -16775.976956     11.871228
PE26  -4108.678287  16527.674281 -24196.349961   -194.103964
PE27 -12708.614823  11093.666310  24320.178374   -519.899933
PE29  -5634.237384  28112.732415   7314.394334    -50.587827
PE30 -22163.672366  -8306.895542  17772.410122   -989.255686
PE31  22167.638537   8351.929942 -17740.517138    -45.199350
PE33  16751.428167  11551.252873 -21482.044201     16.287512
PE34 -17185.990038 -11334.069551  21278.043797   -149.489374
PE36   4713.793554 -16384.677444  24208.205021   -319.627378
PG02    976.732662  15126.982606 -21305.101007   -300.742334
PG03  10717.201702  22047.716910 -10523.691057    615.469609
PG04   1366.199028  23102.853995  12909.915363    489.665678
PG05   2634.795554 -16719.242497  20275.918964   -194.861891
PG06  26065.431714  -5433.484528     32.232630    -15.260028
PG07  17859.819378   9240.547550  18105.530797    -17.066470
PG08  -5521.336390  25667.660028  -1880.915324    429.259350
PG09   8887.897685  16552.868419  18653.338186    470.738797
PG10 -20011.373726  -5729.381854 -16469.164365   -219.365813
PG11  19921.954128 -12319.342120  12500.280793   -752.029212
PG12  -5886.555079 -22322.338760 -13465.257678   -555.989935
PG13  13710.423360 -22161.299324   4188.931446    688.500002
PG14  21068.832443   8954.034563 -13617.696667    552.477347
PG15   1749.368882 -26327.917839  -2744.312945    235.046544
PG16  -9001.356164  12562.676300  21197.605115   -112.855272
PG17  15638.502054   -194.106446 -21080.575363    534.709506
PG18 -19770.803821  -7264.538621  16348.386917   -660.577166
PG19  17355.866181 -10044.251076 -17332.009998    569.726817
PG20  13079.671129  -9002.612008  21354.320754    368.215039
PG21  -5487.677801  16210.585544 -19603.717363     95.939702
PG22  18076.681942   1836.171980 -18871.644957    -83.811298
PG23 -20497.455100 -16352.377817  -4911.279579    375.811320
PG24    778.182345 -16687.742249 -21047.258418   -476.338519
PG25 -17144.686358 -20368.172037  -2452.532844    498.492143
PG26 -17496.900154   3774.586259  19556.440912      4.895648
PG27 -12535.979291  21500.081270   8327.892871    -34.456792
PG28 -25977.871060   5037.692244  -2335.767516   -497.259300
PG29  -7040.609939 -17309.578552  18784.590693   -559.007713
PG30  25208.032919    968.047566   8885.183063   -269.311080
PG31 -23363.233618  10313.778643   7704.986983   -220.678477
PG32 -16086.400964   4180.941175 -20447.956524   -564.901871
PJ02 -26396.318076  23245.104626  28471.905110      0.189383
PJ03 -34456.951688  19883.420047  -9100.494798     -8.126752
PJ04 -19920.842318  29818.509225 -17245.192313     21.493726
PR01   4097.158962  24834.478150   4156.455129    106.455542
PR02   9393.641025  14401.916220  18852.571319    -39.303302
PR03  10431.733618  -4608.991054  22867.498402    112.513920
PR04   5732.462565 -20285.955832  14406.735919    266.763831
PR05  -1869.267687 -25395.271980  -1757.664251    141.626907
PR07 -10357.142997   4922.691552 -22740.471326     96.190162
PR08  -5458.947163  20502.971881 -14068.652687     -6.184184
PR09 -22188.281286 -12043.117986  -3314.184538    224.030624
PR11 -10341.897193   6733.901781  22327.472160      5.589838
PR12   9384.292987  14670.728459  18650.229297     47.949683
PR14  21513.910273   3267.966636 -13318.716404     27.342538
PR15   8776.859446  -7798.659592 -22632.439031     73.511790
PR16  -9316.509691 -14495.356812 -18790.062583     31.311172
PR17  22030.977189  -9586.454982  -8488.159616    145.222084
PR18  18408.002306 -15817.327529   7948.583286    174.878467
PR19   7553.539696 -14563.420445  19537.438179   -300.592515
PR20 -12881.172837  -3756.779029  21701.679803   -122.716631
PR21 -21990.234623   8779.528052   9533.687338   -156.388680
PR22 -17958.442251  15708.100832  -8978.335191    -29.291933
PR24  13694.929477   3119.537124 -21263.168666    -82.551046
PR26  -6079.940890  19296.409918 -15526.608840   -133.085276
EOF
